BEIDOU-3 G1 (C59)       
1 43683U 18085A   26091.86294493 -.00000284  00000+0  00000+0 0  9992
2 43683   2.8820  99.4564 0002058  12.9832 168.3736  1.00268589 27296
BEIDOU-3 M17 (C36)      
1 43706U 18093A   26093.17930544  .00000013  00000+0  00000+0 0  9996
2 43706  54.1686 184.8411 0008074 293.4644  95.1929  1.86228537 50147
BEIDOU-3 M18 (C37)      
1 43707U 18093B   26091.38824043 -.00000003  00000+0  00000+0 0  9994
2 43707  54.1693 184.8940 0006484 331.1835  28.8049  1.86226571 50106
BEIDOU-3 IGSO-1 (C38)   
1 44204U 19023A   26090.65189120 -.00000226  00000+0  00000+0 0  9997
2 44204  58.5926  38.4466 0025189 236.5952 266.8923  1.00262964  6438
BEIDOU-2 G8 (C01)       
1 44231U 19027A   26094.23586623 -.00000246  00000+0  00000+0 0  9990
2 44231   1.4715  74.3130 0011573 276.0276  71.6069  1.00275762 25331
BEIDOU-3 IGSO-2 (C39)   
1 44337U 19035A   26086.82285878 -.00000161  00000+0  00000+0 0  9996
2 44337  55.2326 159.5780 0039045 213.6954 226.2541  1.00291912 24858
BEIDOU-3 M24 (C46)      
1 44542U 19061A   26092.53179473  .00000009  00000+0  00000+0 0  9991
2 44542  54.3964 185.2791 0008187  13.7537 346.3000  1.86228823 44380
BEIDOU-3 M23 (C45)      
1 44543U 19061B   26092.15889837  .00000005  00000+0  00000+0 0  9998
2 44543  54.3946 185.2604 0004867 359.4431  22.6796  1.86227494 44387
BEIDOU-3 IGSO-3 (C40)   
1 44709U 19073A   26092.92237817 -.00000182  00000+0  00000+0 0  9992
2 44709  54.9314 281.7081 0041365 188.5337 171.3411  1.00260005 23707
BEIDOU-3 M22 (C44)      
1 44793U 19078A   26093.98158090 -.00000063  00000+0  00000+0 0  9990
2 44793  54.0035 302.4378 0007546  42.8010 317.2773  1.86227146 43262
BEIDOU-3 M21 (C43)      
1 44794U 19078B   26093.58474245 -.00000063  00000+0  00000+0 0  9990
2 44794  53.9768 302.4147 0005354  38.8071 321.2518  1.86227660 43268
BEIDOU-3 M19 (C41)      
1 44864U 19090A   26092.21155124 -.00000041  00000+0  00000+0 0  9999
2 44864  56.4950  65.2997 0020338 293.9443  62.1866  1.86231371 42811
BEIDOU-3 M20 (C42)      
1 44865U 19090B   26092.34794457 -.00000042  00000+0  00000+0 0  9993
2 44865  56.4965  65.3296 0017833 305.7575 231.4249  1.86231443 42800
BEIDOU-3 G2 (C60)       
1 45344U 20017A   26094.12081959 -.00000140  00000+0  00000+0 0  9990
2 45344   2.7162  46.1345 0002817 334.6591 295.1846  1.00272125 22517
BEIDOU-3 G3 (C61)       
1 45807U 20040A   26094.05555934 -.00000353  00000+0  00000+0 0  9997
2 45807   2.2659  67.2230 0004504 326.6647 289.0502  1.00270244 21321
BEIDOU-3 G4 (C62)       
1 56564U 23066A   26094.84554995 -.00000281  00000+0  00000+0 0  9993
2 56564   0.5937 315.8583 0002909 158.1678 163.5882  1.00270926 10653
BEIDOU-3 M28 (C50)      
1 58654U 23207A   26094.73595214 -.00000043  00000+0  00000+0 0  9995
2 58654  55.6901  64.7795 0004919 314.0672  45.8647  1.86229828 15477
